ONEWEB-0456             
1 51646U 22012AA  24027.87486374  .00000670  00000+0  18840-2 0  9996
2 51646  87.8894 209.3261 0001750  83.7636 276.3691 13.10372881 95234
ONEWEB-0457             
1 51647U 22012AB  24027.92845677 -.00000059  00000+0 -20456-3 0  9998
2 51647  87.8908 209.3257 0001109 100.1570 259.9682 13.10376370 95240
ONEWEB-0458             
1 51648U 22012AC  24027.87323406  .00000684  00000+0  19226-2 0  9998
2 51648  87.8905 209.3503 0001592 101.3272 258.8034 13.10372250 95196
ONEWEB-0461             
1 51649U 22012AD  24027.86133381  .00000035  00000+0  57947-4 0  9993
2 51649  87.9224 179.1346 0001331  99.9987 260.1295 13.17648494 99144
ONEWEB-0463             
1 51650U 22012AE  24027.91988043  .00000013  00000+0 -46342-7 0  9991
2 51650  87.9228 179.1640 0001402 102.3485 257.7804 13.17652595 98939
ONEWEB-0464             
1 51651U 22012AF  24027.86997799  .00000647  00000+0  18164-2 0  9992
2 51651  87.8908 209.3398 0001951  90.2725 269.8626 13.10373578 95219
ONEWEB-0468             
1 51652U 22012AG  24027.87647425  .00000638  00000+0  17911-2 0  9991
2 51652  87.8905 209.3312 0001577  93.3391 266.7917 13.10372180 95194
ONEWEB-0473             
1 51653U 22012AH  24027.86184947  .00000313  00000+0  86097-3 0  9998
2 51653  87.8908 209.3379 0001605  94.6269 265.5042 13.10374946 95199
